GLOBALSTAR M023 [+]     
1 25621U 99004A   24041.52762664  .00000016  00000+0  66573-3 0  9993
2 25621  52.0102 113.5308 0010882 117.3773 348.7805 12.62447669153503
GLOBALSTAR M040 [-]     
1 25622U 99004B   24041.38573024 -.00000065  00000+0  21401-3 0  9994
2 25622  51.9912 117.3958 0000968  76.7177   2.7491 12.61965822153035
GLOBALSTAR M036 [-]     
1 25623U 99004C   24041.33790809 -.00000045  00000+0  55509-3 0  9996
2 25623  51.9963  99.3173 0011835 185.4475 254.9683 11.86560095120479
GLOBALSTAR M038 [-]     
1 25624U 99004D   24041.36083911 -.00000072  00000+0  19426-3 0  9997
2 25624  51.9982  50.8107 0002053 109.7725 357.4362 12.32492788141605
GLOBALSTAR M022 [-]     
1 25649U 99012A   24041.57504677 -.00000087  00000+0 -76991-6 0  9993
2 25649  52.0017 190.0182 0001638 266.8020 172.6810 12.02477600117111
GLOBALSTAR M041 [-]     
1 25650U 99012B   24041.32037783 -.00000064  00000+0  27907-3 0  9991
2 25650  52.0027  57.1355 0002313  66.6175 293.4904 11.96656904119270
GLOBALSTAR M046 [-]     
1 25651U 99012C   24041.52060559 -.00000166  00000+0 -85056-3 0  9994
2 25651  52.0039 158.2828 0001754  14.9696  67.9696 12.09383315124056
GLOBALSTAR M037 [+]     
1 25652U 99012D   24041.02290785 -.00000068  00000+0  19791-3 0  9999
2 25652  51.9980 245.8770 0002126 144.1062  20.7901 12.62395686148983
